{
  "type": "FeatureCollection",
  "features": [
    {
      "type": "Feature",
      "properties": {
        "norad_id": 64751,
        "name": "PROGRESS-MS 31",
        "group": "stations",
        "lat": 7.399230725754746,
        "lon": -118.28849174234722,
        "alt_km": 418.49172700643794,
        "timestamp": "2025-12-27T20:30:58.057535+00:00",
        "meta_object_name": "PROGRESS-MS 31",
        "meta_object_id": "2025-146A",
        "meta_epoch": "2025-12-27T04:18:31.505184",
        "meta_mean_motion": 15.49864323,
        "meta_eccentricity": 0.00032283,
        "meta_inclination": 51.6319,
        "meta_ra_of_asc_node": 70.9638,
        "meta_arg_of_pericenter": 308.9173,
        "meta_mean_anomaly": 51.1527,
        "meta_ephemeris_type": 0,
        "meta_classification_type": "U",
        "meta_norad_cat_id": 64751,
        "meta_element_set_no": 999,
        "meta_rev_at_epoch": 675,
        "meta_bstar": 0.0002516974,
        "meta_mean_motion_dot": 0.00013867,
        "meta_mean_motion_ddot": 0,
        "tle_line1": "1 64751U 25146A   25361.17953131  .00013867  00000+0  25170-3 0  9990",
        "tle_line2": "2 64751  51.6319  70.9638 0003228 308.9173  51.1527 15.49864323  6753"
      },
      "geometry": {
        "type": "Point",
        "coordinates": [
          -118.28849174234722,
          7.399230725754746
        ]
      }
    },
    {
      "type": "Feature",
      "properties": {
        "norad_id": 64786,
        "name": "TIANZHOU-9",
        "group": "stations",
        "lat": 19.28693945112205,
        "lon": 81.55597525409493,
        "alt_km": 379.30719358635724,
        "timestamp": "2025-12-27T20:30:58.057545+00:00",
        "meta_object_name": "TIANZHOU-9",
        "meta_object_id": "2025-149A",
        "meta_epoch": "2025-12-27T06:02:45.823200",
        "meta_mean_motion": 15.59750285,
        "meta_eccentricity": 0.0008745,
        "meta_inclination": 41.4675,
        "meta_ra_of_asc_node": 288.5662,
        "meta_arg_of_pericenter": 157.7703,
        "meta_mean_anomaly": 202.3516,
        "meta_ephemeris_type": 0,
        "meta_classification_type": "U",
        "meta_norad_cat_id": 64786,
        "meta_element_set_no": 999,
        "meta_rev_at_epoch": 25530,
        "meta_bstar": 0.00024488937,
        "meta_mean_motion_dot": 0.0001992,
        "meta_mean_motion_ddot": 0,
        "tle_line1": "1 64786U 25149A   25361.25191925  .00019920  00000+0  24489-3 0  9993",
        "tle_line2": "2 64786  41.4675 288.5662 0008745 157.7703 202.3516 15.59750285255302"
      },
      "geometry": {
        "type": "Point",
        "coordinates": [
          81.55597525409493,
          19.28693945112205
        ]
      }
    },
    {
      "type": "Feature",
      "properties": {
        "norad_id": 65077,
        "name": "CREW DRAGON 11",
        "group": "stations",
        "lat": 7.399229667797579,
        "lon": -118.28849088670229,
        "alt_km": 418.49172712588916,
        "timestamp": "2025-12-27T20:30:58.057556+00:00",
        "meta_object_name": "CREW DRAGON 11",
        "meta_object_id": "2025-166A",
        "meta_epoch": "2025-12-27T04:18:31.505184",
        "meta_mean_motion": 15.49864323,
        "meta_eccentricity": 0.00032283,
        "meta_inclination": 51.6319,
        "meta_ra_of_asc_node": 70.9638,
        "meta_arg_of_pericenter": 308.9173,
        "meta_mean_anomaly": 51.1527,
        "meta_ephemeris_type": 0,
        "meta_classification_type": "U",
        "meta_norad_cat_id": 65077,
        "meta_element_set_no": 999,
        "meta_rev_at_epoch": 214,
        "meta_bstar": 0.0002516974,
        "meta_mean_motion_dot": 0.00013867,
        "meta_mean_motion_ddot": 0,
        "tle_line1": "1 65077U 25166A   25361.17953131  .00013867  00000+0  25170-3 0  9994",
        "tle_line2": "2 65077  51.6319  70.9638 0003228 308.9173  51.1527 15.49864323  2144"
      },
      "geometry": {
        "type": "Point",
        "coordinates": [
          -118.28849088670229,
          7.399229667797579
        ]
      }
    },
    {
      "type": "Feature",
      "properties": {
        "norad_id": 65304,
        "name": "DRAGON CRS-33",
        "group": "stations",
        "lat": 7.399229063249823,
        "lon": -118.28849039776168,
        "alt_km": 418.49172719414673,
        "timestamp": "2025-12-27T20:30:58.057568+00:00",
        "meta_object_name": "DRAGON CRS-33",
        "meta_object_id": "2025-186A",
        "meta_epoch": "2025-12-27T04:18:31.505184",
        "meta_mean_motion": 15.49864323,
        "meta_eccentricity": 0.00032283,
        "meta_inclination": 51.6319,
        "meta_ra_of_asc_node": 70.9638,
        "meta_arg_of_pericenter": 308.9173,
        "meta_mean_anomaly": 51.1527,
        "meta_ephemeris_type": 0,
        "meta_classification_type": "U",
        "meta_norad_cat_id": 65304,
        "meta_element_set_no": 999,
        "meta_rev_at_epoch": 11,
        "meta_bstar": 0.0002516974,
        "meta_mean_motion_dot": 0.00013867,
        "meta_mean_motion_ddot": 0,
        "tle_line1": "1 65304U 25186A   25361.17953131  .00013867  00000+0  25170-3 0  9999",
        "tle_line2": "2 65304  51.6319  70.9638 0003228 308.9173  51.1527 15.49864323   112"
      },
      "geometry": {
        "type": "Point",
        "coordinates": [
          -118.28849039776168,
          7.399229063249823
        ]
      }
    },
    {
      "type": "Feature",
      "properties": {
        "norad_id": 65586,
        "name": "PROGRESS-MS 32",
        "group": "stations",
        "lat": 7.399228509082806,
        "lon": -118.28848994956752,
        "alt_km": 418.49172725671633,
        "timestamp": "2025-12-27T20:30:58.057579+00:00",
        "meta_object_name": "PROGRESS-MS 32",
        "meta_object_id": "2025-204A",
        "meta_epoch": "2025-12-27T04:18:31.505184",
        "meta_mean_motion": 15.49864323,
        "meta_eccentricity": 0.00032283,
        "meta_inclination": 51.6319,
        "meta_ra_of_asc_node": 70.9638,
        "meta_arg_of_pericenter": 308.9173,
        "meta_mean_anomaly": 51.1527,
        "meta_ephemeris_type": 0,
        "meta_classification_type": "U",
        "meta_norad_cat_id": 65586,
        "meta_element_set_no": 999,
        "meta_rev_at_epoch": 27,
        "meta_bstar": 0.0002516974,
        "meta_mean_motion_dot": 0.00013867,
        "meta_mean_motion_ddot": 0,
        "tle_line1": "1 65586U 25204A   25361.17953131  .00013867  00000+0  25170-3 0  9992",
        "tle_line2": "2 65586  51.6319  70.9638 0003228 308.9173  51.1527 15.49864323   271"
      },
      "geometry": {
        "type": "Point",
        "coordinates": [
          -118.28848994956752,
          7.399228509082806
        ]
      }
    },
    {
      "type": "Feature",
      "properties": {
        "norad_id": 65616,
        "name": "CYGNUS NG-23",
        "group": "stations",
        "lat": 7.399227904536937,
        "lon": -118.28848946062844,
        "alt_km": 418.4917273249739,
        "timestamp": "2025-12-27T20:30:58.057591+00:00",
        "meta_object_name": "CYGNUS NG-23",
        "meta_object_id": "2025-208A",
        "meta_epoch": "2025-12-27T04:18:31.505184",
        "meta_mean_motion": 15.49864323,
        "meta_eccentricity": 0.00032283,
        "meta_inclination": 51.6319,
        "meta_ra_of_asc_node": 70.9638,
        "meta_arg_of_pericenter": 308.9173,
        "meta_mean_anomaly": 51.1527,
        "meta_ephemeris_type": 0,
        "meta_classification_type": "U",
        "meta_norad_cat_id": 65616,
        "meta_element_set_no": 999,
        "meta_rev_at_epoch": 22,
        "meta_bstar": 0.0002516974,
        "meta_mean_motion_dot": 0.00013867,
        "meta_mean_motion_ddot": 0,
        "tle_line1": "1 65616U 25208A   25361.17953131  .00013867  00000+0  25170-3 0  9990",
        "tle_line2": "2 65616  51.6319  70.9638 0003228 308.9173  51.1527 15.49864323   220"
      },
      "geometry": {
        "type": "Point",
        "coordinates": [
          -118.28848946062844,
          7.399227904536937
        ]
      }
    },
    {
      "type": "Feature",
      "properties": {
        "norad_id": 65729,
        "name": "DRAGONFLY",
        "group": "stations",
        "lat": 43.360066691141405,
        "lon": 106.51015877399537,
        "alt_km": 328.61150818198075,
        "timestamp": "2025-12-27T20:30:58.057601+00:00",
        "meta_object_name": "DRAGONFLY",
        "meta_object_id": "1998-067XH",
        "meta_epoch": "2025-12-27T09:36:53.510976",
        "meta_mean_motion": 15.772546,
        "meta_eccentricity": 0.0008326,
        "meta_inclination": 51.6252,
        "meta_ra_of_asc_node": 60.4091,
        "meta_arg_of_pericenter": 3.6197,
        "meta_mean_anomaly": 356.4863,
        "meta_ephemeris_type": 0,
        "meta_classification_type": "U",
        "meta_norad_cat_id": 65729,
        "meta_element_set_no": 999,
        "meta_rev_at_epoch": 1547,
        "meta_bstar": 0.0013487,
        "meta_mean_motion_dot": 0.00232349,
        "meta_mean_motion_ddot": 0,
        "tle_line1": "1 65729U 98067XH  25361.40061934  .00232349  00000+0  13487-2 0  9990",
        "tle_line2": "2 65729  51.6252  60.4091 0008326   3.6197 356.4863 15.77254600 15476"
      },
      "geometry": {
        "type": "Point",
        "coordinates": [
          106.51015877399537,
          43.360066691141405
        ]
      }
    }
  ]
}